[{"OBJECT_NAME":"OBJECT H","OBJECT_ID":"2024-205H","EPOCH":"2026-03-09T23:10:36.271776","MEAN_MOTION":15.29110994,"ECCENTRICITY":0.00105089,"INCLINATION":97.4168,"RA_OF_ASC_NODE":147.1265,"ARG_OF_PERICENTER":38.7838,"MEAN_ANOMALY":321.4154,"EPHEMERIS_TYPE":0,"CLASSIFICATION_TYPE":"U","NORAD_CAT_ID":61901,"ELEMENT_SET_NO":999,"REV_AT_EPOCH":7354,"BSTAR":0.00059497566,"MEAN_MOTION_DOT":0.00016783,"MEAN_MOTION_DDOT":0},{"OBJECT_NAME":"STARLINK-32444","OBJECT_ID":"2024-217S","EPOCH":"2026-03-09T15:28:29.449920","MEAN_MOTION":15.30185337,"ECCENTRICITY":0.0001041,"INCLINATION":53.1581,"RA_OF_ASC_NODE":194.1821,"ARG_OF_PERICENTER":71.1129,"MEAN_ANOMALY":288.9984,"EPHEMERIS_TYPE":0,"CLASSIFICATION_TYPE":"U","NORAD_CAT_ID":62073,"ELEMENT_SET_NO":999,"REV_AT_EPOCH":7341,"BSTAR":0.00098311,"MEAN_MOTION_DOT":0.00028857,"MEAN_MOTION_DDOT":0}]
